STARLINK-1993
1 27588C 21009AS  21325.16858487  .00009472  00000-0  63451-3 0  3251
2 27588  53.0526 227.4819 0001864  68.5210 334.9278 15.06396065    17
